0 DMSP 5D-2 F11 DEB
1 29073U 91082BU  13283.25592721  .00002907  00000-0  12413-2 0  6753
2 29073 098.7159 283.2708 0018631 092.9482 267.4006 14.25699340469978
0 DMSP 5D-2 F11 DEB
1 29073U 91082BU  13285.78241185  .00003062  00000-0  13057-2 0  6778
2 29073 098.7175 285.7855 0020358 089.7243 270.6375 14.25716991470333
0 DMSP 5D-2 F11 DEB
1 29073U 91082BU  13287.18600325  .00003151  00000-0  13431-2 0  6785
2 29073 098.7151 287.1721 0019640 082.0773 278.2733 14.25727249470533
0 DMSP 5D-2 F11 DEB
1 29073U 91082BU  13288.80011884  .00003464  00000-0  14743-2 0  6796
2 29073 098.7169 288.7784 0018951 080.3460 280.0421 14.25742351470767
0 DMSP 5D-2 F11 DEB
1 29073U 91082BU  13290.20367075  .00003591  00000-0  15275-2 0  6803
2 29073 098.7156 290.1739 0018125 074.8132 285.5180 14.25754618470960
0 DMSP 5D-2 F11 DEB
1 29073U 91082BU  13292.23881818  .00003995  00000-0  16960-2 0  6815
2 29073 098.7141 292.1988 0018975 068.6409 291.7162 14.25774959471255
0 DMSP 5D-2 F11 DEB
1 29073U 91082BU  13295.81779703  .00004221  00000-0  17899-2 0  6827
2 29073 098.7165 295.7595 0019388 060.5453 299.7992 14.25807674471769
